{"type": "FeatureCollection", "features": [ {"type": "Feature", "properties": {"norad_id": 29986, "name": "FENGYUN 1C DEB", "group": "fengyun-1c-debris", "lat": -59.39048657550905, "lon": 66.17672390224668, "alt_km": 796.3219113213299, "timestamp": "2025-12-08T13:49:32.065583+00:00", "meta": {"OBJECT_NAME": "FENGYUN 1C DEB", "OBJECT_ID": "1999-025LL", "EPOCH": "2025-12-08T04:17:12.931296", "MEAN_MOTION": 14.29165148, "ECCENTRICITY": 0.00228252, "INCLINATION": 99.3979, "RA_OF_ASC_NODE": 49.4921, "ARG_OF_PERICENTER": 11.8443, "MEAN_ANOMALY": 44.0189, "EPHEMERIS_TYPE": 0, "CLASSIFICATION_TYPE": "U", "NORAD_CAT_ID": 29986, "ELEMENT_SET_NO": 999, "REV_AT_EPOCH": 97442, "BSTAR": 0.0020450162, "MEAN_MOTION_DOT": 5.158e-05, "MEAN_MOTION_DDOT": 0}, "tle": {"line1": "1 29986U 99025LL  25342.17862189  .00005158  00000+0  20450-2 0  9998", "line2": "2 29986  99.3979  49.4921 0022825  11.8443  44.0189 14.29165148974424"}}, "geometry": {"type": "Point", "coordinates": [66.17672390224668, -59.39048657550905]}}, {"type": "Feature", "properties": {"norad_id": 29987, "name": "FENGYUN 1C DEB", "group": "fengyun-1c-debris", "lat": 64.3126533367989, "lon": 73.57984186367388, "alt_km": 875.8153517262817, "timestamp": "2025-12-08T13:49:32.065593+00:00", "meta": {"OBJECT_NAME": "FENGYUN 1C DEB", "OBJECT_ID": "1999-025LM", "EPOCH": "2025-12-08T05:23:36.631392", "MEAN_MOTION": 14.1447827, "ECCENTRICITY": 0.00800262, "INCLINATION": 98.8969, "RA_OF_ASC_NODE": 234.2245, "ARG_OF_PERICENTER": 246.668, "MEAN_ANOMALY": 240.1204, "EPHEMERIS_TYPE": 0, "CLASSIFICATION_TYPE": "U", "NORAD_CAT_ID": 29987, "ELEMENT_SET_NO": 999, "REV_AT_EPOCH": 96309, "BSTAR": 0.0035117513, "MEAN_MOTION_DOT": 6.902e-05, "MEAN_MOTION_DDOT": 0}, "tle": {"line1": "1 29987U 99025LM  25342.22472953  .00006902  00000+0  35118-2 0  9996", "line2": "2 29987  98.8969 234.2245 0080026 246.6680 240.1204 14.14478270963094"}}, "geometry": {"type": "Point", "coordinates": [73.57984186367388, 64.3126533367989]}}, {"type": "Feature", "properties": {"norad_id": 29988, "name": "FENGYUN 1C DEB", "group": "fengyun-1c-debris", "lat": -40.0048768819613, "lon": 93.72406541965606, "alt_km": 702.9428110976278, "timestamp": "2025-12-08T13:49:32.065604+00:00", "meta": {"OBJECT_NAME": "FENGYUN 1C DEB", "OBJECT_ID": "1999-025LN", "EPOCH": "2025-12-08T06:00:42.130368", "MEAN_MOTION": 14.50298784, "ECCENTRICITY": 0.01208978, "INCLINATION": 98.6959, "RA_OF_ASC_NODE": 86.0082, "ARG_OF_PERICENTER": 32.0018, "MEAN_ANOMALY": 29.9536, "EPHEMERIS_TYPE": 0, "CLASSIFICATION_TYPE": "U", "NORAD_CAT_ID": 29988, "ELEMENT_SET_NO": 999, "REV_AT_EPOCH": 98002, "BSTAR": 0.0018908174, "MEAN_MOTION_DOT": 8.051e-05, "MEAN_MOTION_DDOT": 0}, "tle": {"line1": "1 29988U 99025LN  25342.25048762  .00008051  00000+0  18908-2 0  9992", "line2": "2 29988  98.6959  86.0082 0120897  32.0018  29.9536 14.50298784980020"}}, "geometry": {"type": "Point", "coordinates": [93.72406541965606, -40.0048768819613]}}, {"type": "Feature", "properties": {"norad_id": 29989, "name": "FENGYUN 1C DEB", "group": "fengyun-1c-debris", "lat": 34.76497220701072, "lon": -44.59915871197876, "alt_km": 925.1828671142612, "timestamp": "2025-12-08T13:49:32.065614+00:00", "meta": {"OBJECT_NAME": "FENGYUN 1C DEB", "OBJECT_ID": "1999-025LP", "EPOCH": "2025-12-08T05:30:10.184256", "MEAN_MOTION": 14.15814975, "ECCENTRICITY": 0.01230151, "INCLINATION": 98.6673, "RA_OF_ASC_NODE": 321.1411, "ARG_OF_PERICENTER": 208.6292, "MEAN_ANOMALY": 220.3501, "EPHEMERIS_TYPE": 0, "CLASSIFICATION_TYPE": "U", "NORAD_CAT_ID": 29989, "ELEMENT_SET_NO": 999, "REV_AT_EPOCH": 97547, "BSTAR": 0.00026904514, "MEAN_MOTION_DOT": 5.26e-06, "MEAN_MOTION_DDOT": 0}, "tle": {"line1": "1 29989U 99025LP  25342.22928454  .00000526  00000+0  26905-3 0  9991", "line2": "2 29989  98.6673 321.1411 0123015 208.6292 220.3501 14.15814975975472"}}, "geometry": {"type": "Point", "coordinates": [-44.59915871197876, 34.76497220701072]}}, {"type": "Feature", "properties": {"norad_id": 29992, "name": "FENGYUN 1C DEB", "group": "fengyun-1c-debris", "lat": -37.38432617247581, "lon": -15.434593866299638, "alt_km": 911.0129518782032, "timestamp": "2025-12-08T13:49:32.065624+00:00", "meta": {"OBJECT_NAME": "FENGYUN 1C DEB", "OBJECT_ID": "1999-025LS", "EPOCH": "2025-12-08T05:48:36.080928", "MEAN_MOTION": 14.11609336, "ECCENTRICITY": 0.00886446, "INCLINATION": 98.7297, "RA_OF_ASC_NODE": 337.498, "ARG_OF_PERICENTER": 180.4128, "MEAN_ANOMALY": 244.891, "EPHEMERIS_TYPE": 0, "CLASSIFICATION_TYPE": "U", "NORAD_CAT_ID": 29992, "ELEMENT_SET_NO": 999, "REV_AT_EPOCH": 97324, "BSTAR": 0.00014979638, "MEAN_MOTION_DOT": 2.4e-06, "MEAN_MOTION_DDOT": 0}, "tle": {"line1": "1 29992U 99025LS  25342.24208427  .00000240  00000+0  14980-3 0  9991", "line2": "2 29992  98.7297 337.4980 0088644 180.4128 244.8910 14.11609336973240"}}, "geometry": {"type": "Point", "coordinates": [-15.434593866299638, -37.38432617247581]}}, {"type": "Feature", "properties": {"norad_id": 29993, "name": "FENGYUN 1C DEB", "group": "fengyun-1c-debris", "lat": -24.060640958371618, "lon": 23.37961427494118, "alt_km": 843.5144406716936, "timestamp": "2025-12-08T13:49:32.065635+00:00", "meta": {"OBJECT_NAME": "FENGYUN 1C DEB", "OBJECT_ID": "1999-025LT", "EPOCH": "2025-12-08T02:00:10.905984", "MEAN_MOTION": 14.08146434, "ECCENTRICITY": 0.00386372, "INCLINATION": 98.7938, "RA_OF_ASC_NODE": 18.9365, "ARG_OF_PERICENTER": 328.0915, "MEAN_ANOMALY": 31.7915, "EPHEMERIS_TYPE": 0, "CLASSIFICATION_TYPE": "U", "NORAD_CAT_ID": 29993, "ELEMENT_SET_NO": 999, "REV_AT_EPOCH": 97104, "BSTAR": 9.8363119e-05, "MEAN_MOTION_DOT": 1.26e-06, "MEAN_MOTION_DDOT": 0}, "tle": {"line1": "1 29993U 99025LT  25342.08345956  .00000126  00000+0  98363-4 0  9994", "line2": "2 29993  98.7938  18.9365 0038637 328.0915  31.7915 14.08146434971047"}}, "geometry": {"type": "Point", "coordinates": [23.37961427494118, -24.060640958371618]}}, {"type": "Feature", "properties": {"norad_id": 29994, "name": "FENGYUN 1C DEB", "group": "fengyun-1c-debris", "lat": -8.496585239901044, "lon": 16.279454749047257, "alt_km": 943.3823417875847, "timestamp": "2025-12-08T13:49:32.065645+00:00", "meta": {"OBJECT_NAME": "FENGYUN 1C DEB", "OBJECT_ID": "1999-025LU", "EPOCH": "2025-12-08T02:09:22.339296", "MEAN_MOTION": 14.02639878, "ECCENTRICITY": 0.01295085, "INCLINATION": 98.8299, "RA_OF_ASC_NODE": 14.4774, "ARG_OF_PERICENTER": 226.653, "MEAN_ANOMALY": 189.8279, "EPHEMERIS_TYPE": 0, "CLASSIFICATION_TYPE": "U", "NORAD_CAT_ID": 29994, "ELEMENT_SET_NO": 999, "REV_AT_EPOCH": 96661, "BSTAR": 0.00030861265, "MEAN_MOTION_DOT": 4.69e-06, "MEAN_MOTION_DDOT": 0}, "tle": {"line1": "1 29994U 99025LU  25342.08984189  .00000469  00000+0  30861-3 0  9990", "line2": "2 29994  98.8299  14.4774 0129508 226.6530 189.8279 14.02639878966616"}}, "geometry": {"type": "Point", "coordinates": [16.279454749047257, -8.496585239901044]}}, {"type": "Feature", "properties": {"norad_id": 29996, "name": "FENGYUN 1C DEB", "group": "fengyun-1c-debris", "lat": 67.17252445539748, "lon": -3.1008198383822467, "alt_km": 772.1011120827125, "timestamp": "2025-12-08T13:49:32.065656+00:00", "meta": {"OBJECT_NAME": "FENGYUN 1C DEB", "OBJECT_ID": "1999-025LW", "EPOCH": "2025-12-08T01:49:52.076352", "MEAN_MOTION": 14.09375397, "ECCENTRICITY": 0.01320916, "INCLINATION": 99.303, "RA_OF_ASC_NODE": 19.301, "ARG_OF_PERICENTER": 100.9081, "MEAN_ANOMALY": 314.6386, "EPHEMERIS_TYPE": 0, "CLASSIFICATION_TYPE": "U", "NORAD_CAT_ID": 29996, "ELEMENT_SET_NO": 999, "REV_AT_EPOCH": 96071, "BSTAR": 0.0021030457, "MEAN_MOTION_DOT": 3.931e-05, "MEAN_MOTION_DDOT": 0}, "tle": {"line1": "1 29996U 99025LW  25342.07629718  .00003931  00000+0  21030-2 0  9999", "line2": "2 29996  99.3030  19.3010 0132091 100.9081 314.6386 14.09375397960712"}}, "geometry": {"type": "Point", "coordinates": [-3.1008198383822467, 67.17252445539748]}}, {"type": "Feature", "properties": {"norad_id": 29997, "name": "FENGYUN 1C DEB", "group": "fengyun-1c-debris", "lat": -30.16840576915065, "lon": 167.92494092271087, "alt_km": 932.7307085550956, "timestamp": "2025-12-08T13:49:32.065666+00:00", "meta": {"OBJECT_NAME": "FENGYUN 1C DEB", "OBJECT_ID": "1999-025LX", "EPOCH": "2025-12-08T07:45:16.697088", "MEAN_MOTION": 14.00862967, "ECCENTRICITY": 0.00803092, "INCLINATION": 98.8811, "RA_OF_ASC_NODE": 352.8936, "ARG_OF_PERICENTER": 339.656, "MEAN_ANOMALY": 36.5554, "EPHEMERIS_TYPE": 0, "CLASSIFICATION_TYPE": "U", "NORAD_CAT_ID": 29997, "ELEMENT_SET_NO": 999, "REV_AT_EPOCH": 96328, "BSTAR": 0.0012919119, "MEAN_MOTION_DOT": 1.942e-05, "MEAN_MOTION_DDOT": 0}, "tle": {"line1": "1 29997U 99025LX  25342.32310992  .00001942  00000+0  12919-2 0  9995", "line2": "2 29997  98.8811 352.8936 0080309 339.6560  36.5554 14.00862967963280"}}, "geometry": {"type": "Point", "coordinates": [167.92494092271087, -30.16840576915065]}}, {"type": "Feature", "properties": {"norad_id": 29998, "name": "FENGYUN 1C DEB", "group": "fengyun-1c-debris", "lat": 46.60938134725607, "lon": 32.71002208018708, "alt_km": 792.7451936316138, "timestamp": "2025-12-08T13:49:32.065677+00:00", "meta": {"OBJECT_NAME": "FENGYUN 1C DEB", "OBJECT_ID": "1999-025LY", "EPOCH": "2025-12-08T03:31:06.214944", "MEAN_MOTION": 14.2851532, "ECCENTRICITY": 0.00046578, "INCLINATION": 99.3058, "RA_OF_ASC_NODE": 42.2406, "ARG_OF_PERICENTER": 315.2096, "MEAN_ANOMALY": 44.8707, "EPHEMERIS_TYPE": 0, "CLASSIFICATION_TYPE": "U", "NORAD_CAT_ID": 29998, "ELEMENT_SET_NO": 999, "REV_AT_EPOCH": 97809, "BSTAR": 0.0011736362, "MEAN_MOTION_DOT": 2.893e-05, "MEAN_MOTION_DDOT": 0}, "tle": {"line1": "1 29998U 99025LY  25342.14659971  .00002893  00000+0  11736-2 0  9991", "line2": "2 29998  99.3058  42.2406 0004657 315.2096  44.8707 14.28515320978093"}}, "geometry": {"type": "Point", "coordinates": [32.71002208018708, 46.60938134725607]}}]}